[{"OBJECT_NAME":"TIANQI-33","OBJECT_ID":"2024-245A","EPOCH":"2026-03-09T23:40:08.404896","MEAN_MOTION":13.99170744,"ECCENTRICITY":0.00094142,"INCLINATION":44.9842,"RA_OF_ASC_NODE":43.422,"ARG_OF_PERICENTER":270.4695,"MEAN_ANOMALY":89.5059,"EPHEMERIS_TYPE":0,"CLASSIFICATION_TYPE":"U","NORAD_CAT_ID":62365,"ELEMENT_SET_NO":999,"REV_AT_EPOCH":6246,"BSTAR":0.00013765247,"MEAN_MOTION_DOT":7.2e-7,"MEAN_MOTION_DDOT":0},{"OBJECT_NAME":"FENGYUN 1C DEB","OBJECT_ID":"1999-025ZF","EPOCH":"2026-03-09T22:23:05.980704","MEAN_MOTION":14.35158943,"ECCENTRICITY":0.01987981,"INCLINATION":98.3659,"RA_OF_ASC_NODE":59.4887,"ARG_OF_PERICENTER":49.369,"MEAN_ANOMALY":4.5938,"EPHEMERIS_TYPE":0,"CLASSIFICATION_TYPE":"U","NORAD_CAT_ID":30294,"ELEMENT_SET_NO":999,"REV_AT_EPOCH":99787,"BSTAR":0.00051487838,"MEAN_MOTION_DOT":1.793e-5,"MEAN_MOTION_DDOT":0}]
